{"type": "FeatureCollection", "features": [ {"type": "Feature", "properties": {"norad_id": 61182, "name": "GSAT0232 (GALILEO 32)", "group": "gnss", "lat": 29.12014584836993, "lon": 23.346818945232755, "alt_km": 23215.77826008428, "timestamp": "2025-12-25T07:00:34.290112+00:00", "meta": {"OBJECT_NAME": "GSAT0232 (GALILEO 32)", "OBJECT_ID": "2024-167A", "EPOCH": "2025-12-24T18:25:47.943264", "MEAN_MOTION": 1.70473505, "ECCENTRICITY": 0.0001887, "INCLINATION": 55.2374, "RA_OF_ASC_NODE": 226.1008, "ARG_OF_PERICENTER": 202.1814, "MEAN_ANOMALY": 339.8736, "EPHEMERIS_TYPE": 0, "CLASSIFICATION_TYPE": "U", "NORAD_CAT_ID": 61182, "ELEMENT_SET_NO": 999, "REV_AT_EPOCH": 790, "BSTAR": 0, "MEAN_MOTION_DOT": 7.1e-07, "MEAN_MOTION_DDOT": 0}, "tle": {"line1": "1 61182U 24167A   25358.76791601  .00000071  00000+0  00000+0 0  9994", "line2": "2 61182  55.2374 226.1008 0001887 202.1814 339.8736  1.70473505  7904"}}, "geometry": {"type": "Point", "coordinates": [23.346818945232755, 29.12014584836993]}}, {"type": "Feature", "properties": {"norad_id": 61183, "name": "GSAT0226 (GALILEO 31)", "group": "gnss", "lat": -52.956846797184824, "lon": 113.03385561269725, "alt_km": 23231.026484295766, "timestamp": "2025-12-25T07:00:34.290127+00:00", "meta": {"OBJECT_NAME": "GSAT0226 (GALILEO 31)", "OBJECT_ID": "2024-167B", "EPOCH": "2025-12-23T09:50:40.022880", "MEAN_MOTION": 1.70473667, "ECCENTRICITY": 0.00012164, "INCLINATION": 55.2365, "RA_OF_ASC_NODE": 226.1435, "ARG_OF_PERICENTER": 108.5259, "MEAN_ANOMALY": 72.9218, "EPHEMERIS_TYPE": 0, "CLASSIFICATION_TYPE": "U", "NORAD_CAT_ID": 61183, "ELEMENT_SET_NO": 999, "REV_AT_EPOCH": 785, "BSTAR": 0, "MEAN_MOTION_DOT": 7.3e-07, "MEAN_MOTION_DDOT": 0}, "tle": {"line1": "1 61183U 24167B   25357.41018545  .00000073  00000+0  00000+0 0  9997", "line2": "2 61183  55.2365 226.1435 0001216 108.5259  72.9218  1.70473667  7850"}}, "geometry": {"type": "Point", "coordinates": [113.03385561269725, -52.956846797184824]}}, {"type": "Feature", "properties": {"norad_id": 61186, "name": "BEIDOU-3 M25 (C47)", "group": "gnss", "lat": -38.97726703951347, "lon": 163.3075664142227, "alt_km": 21527.572324033306, "timestamp": "2025-12-25T07:00:34.290139+00:00", "meta": {"OBJECT_NAME": "BEIDOU-3 M25 (C47)", "OBJECT_ID": "2024-168B", "EPOCH": "2025-12-24T22:47:22.891200", "MEAN_MOTION": 1.86230024, "ECCENTRICITY": 0.0005414, "INCLINATION": 54.6312, "RA_OF_ASC_NODE": 308.298, "ARG_OF_PERICENTER": 300.1536, "MEAN_ANOMALY": 60.716, "EPHEMERIS_TYPE": 0, "CLASSIFICATION_TYPE": "U", "NORAD_CAT_ID": 61186, "ELEMENT_SET_NO": 999, "REV_AT_EPOCH": 854, "BSTAR": 0, "MEAN_MOTION_DOT": -5.3e-07, "MEAN_MOTION_DDOT": 0}, "tle": {"line1": "1 61186U 24168B   25358.94957050 -.00000053  00000+0  00000+0 0  9992", "line2": "2 61186  54.6312 308.2980 0005414 300.1536  60.7160  1.86230024  8540"}}, "geometry": {"type": "Point", "coordinates": [163.3075664142227, -38.97726703951347]}}, {"type": "Feature", "properties": {"norad_id": 61187, "name": "BEIDOU-3 M27 (C49)", "group": "gnss", "lat": 4.440152044265985, "lon": -48.58847870524128, "alt_km": 21521.3254245145, "timestamp": "2025-12-25T07:00:34.290152+00:00", "meta": {"OBJECT_NAME": "BEIDOU-3 M27 (C49)", "OBJECT_ID": "2024-168C", "EPOCH": "2025-12-24T11:58:42.703968", "MEAN_MOTION": 1.86230214, "ECCENTRICITY": 0.00025498, "INCLINATION": 54.6271, "RA_OF_ASC_NODE": 308.2972, "ARG_OF_PERICENTER": 341.1652, "MEAN_ANOMALY": 212.6408, "EPHEMERIS_TYPE": 0, "CLASSIFICATION_TYPE": "U", "NORAD_CAT_ID": 61187, "ELEMENT_SET_NO": 999, "REV_AT_EPOCH": 600, "BSTAR": 0, "MEAN_MOTION_DOT": -5.3e-07, "MEAN_MOTION_DDOT": 0}, "tle": {"line1": "1 61187U 24168C   25358.49910537 -.00000053  00000+0  00000+0 0  9992", "line2": "2 61187  54.6271 308.2972 0002549 341.1652 212.6408  1.86230214  6009"}}, "geometry": {"type": "Point", "coordinates": [-48.58847870524128, 4.440152044265985]}}, {"type": "Feature", "properties": {"norad_id": 62339, "name": "GPS BIII-7  (PRN 01)", "group": "gnss", "lat": -28.640491821298205, "lon": -41.34141599568463, "alt_km": 20153.980487595465, "timestamp": "2025-12-25T07:00:34.290163+00:00", "meta": {"OBJECT_NAME": "GPS BIII-7  (PRN 01)", "OBJECT_ID": "2024-242A", "EPOCH": "2025-12-24T14:08:35.073312", "MEAN_MOTION": 2.00568073, "ECCENTRICITY": 0.00128162, "INCLINATION": 54.9201, "RA_OF_ASC_NODE": 341.2611, "ARG_OF_PERICENTER": 346.3759, "MEAN_ANOMALY": 190.3817, "EPHEMERIS_TYPE": 0, "CLASSIFICATION_TYPE": "U", "NORAD_CAT_ID": 62339, "ELEMENT_SET_NO": 999, "REV_AT_EPOCH": 775, "BSTAR": 0, "MEAN_MOTION_DOT": -6.2e-07, "MEAN_MOTION_DDOT": 0}, "tle": {"line1": "1 62339U 24242A   25358.58929483 -.00000062  00000+0  00000+0 0  9995", "line2": "2 62339  54.9201 341.2611 0012816 346.3759 190.3817  2.00568073  7758"}}, "geometry": {"type": "Point", "coordinates": [-41.34141599568463, -28.640491821298205]}}, {"type": "Feature", "properties": {"norad_id": 62850, "name": "NVS-02 (IRNSS-1K)", "group": "gnss", "lat": -16.928761539619053, "lon": -164.27321358703082, "alt_km": 30959.41926745277, "timestamp": "2025-12-25T07:00:34.290176+00:00", "meta": {"OBJECT_NAME": "NVS-02 (IRNSS-1K)", "OBJECT_ID": "2025-020A", "EPOCH": "2025-12-23T02:48:28.612512", "MEAN_MOTION": 2.17602057, "ECCENTRICITY": 0.73473509, "INCLINATION": 20.9588, "RA_OF_ASC_NODE": 323.9017, "ARG_OF_PERICENTER": 32.9618, "MEAN_ANOMALY": 356.3768, "EPHEMERIS_TYPE": 0, "CLASSIFICATION_TYPE": "U", "NORAD_CAT_ID": 62850, "ELEMENT_SET_NO": 999, "REV_AT_EPOCH": 714, "BSTAR": 0.00026724694, "MEAN_MOTION_DOT": 1.47e-06, "MEAN_MOTION_DDOT": 0}, "tle": {"line1": "1 62850U 25020A   25357.11699783  .00000147  00000+0  26725-3 0  9992", "line2": "2 62850  20.9588 323.9017 7347350  32.9618 356.3768  2.17602057  7148"}}, "geometry": {"type": "Point", "coordinates": [-164.27321358703082, -16.928761539619053]}}, {"type": "Feature", "properties": {"norad_id": 62876, "name": "QZS-6 (QZSS/PRN 200)", "group": "gnss", "lat": -0.05212927067871072, "lon": -70.2659959714383, "alt_km": 35779.555883037625, "timestamp": "2025-12-25T07:00:34.290188+00:00", "meta": {"OBJECT_NAME": "QZS-6 (QZSS/PRN 200)", "OBJECT_ID": "2025-023A", "EPOCH": "2025-12-24T19:49:25.245696", "MEAN_MOTION": 1.00270652, "ECCENTRICITY": 0.00016452, "INCLINATION": 0.0583, "RA_OF_ASC_NODE": 74.0221, "ARG_OF_PERICENTER": 207.3878, "MEAN_ANOMALY": 200.0828, "EPHEMERIS_TYPE": 0, "CLASSIFICATION_TYPE": "U", "NORAD_CAT_ID": 62876, "ELEMENT_SET_NO": 999, "REV_AT_EPOCH": 321, "BSTAR": 0, "MEAN_MOTION_DOT": -2.12e-06, "MEAN_MOTION_DDOT": 0}, "tle": {"line1": "1 62876U 25023A   25358.82598664 -.00000212  00000+0  00000+0 0  9996", "line2": "2 62876   0.0583  74.0221 0001645 207.3878 200.0828  1.00270652  3213"}}, "geometry": {"type": "Point", "coordinates": [-70.2659959714383, -0.05212927067871072]}}, {"type": "Feature", "properties": {"norad_id": 63130, "name": "COSMOS 2584 (704K)", "group": "gnss", "lat": -8.072863462946836, "lon": -97.47682037674204, "alt_km": 19114.54790134421, "timestamp": "2025-12-25T07:00:34.290199+00:00", "meta": {"OBJECT_NAME": "COSMOS 2584 (704K)", "OBJECT_ID": "2025-042A", "EPOCH": "2025-12-24T02:34:25.549824", "MEAN_MOTION": 2.13102981, "ECCENTRICITY": 0.00077651, "INCLINATION": 64.9819, "RA_OF_ASC_NODE": 78.7588, "ARG_OF_PERICENTER": 220.6893, "MEAN_ANOMALY": 139.3012, "EPHEMERIS_TYPE": 0, "CLASSIFICATION_TYPE": "U", "NORAD_CAT_ID": 63130, "ELEMENT_SET_NO": 999, "REV_AT_EPOCH": 631, "BSTAR": 0, "MEAN_MOTION_DOT": 1e-08, "MEAN_MOTION_DDOT": 0}, "tle": {"line1": "1 63130U 25042A   25358.10724016  .00000001  00000+0  00000+0 0  9999", "line2": "2 63130  64.9819  78.7588 0007765 220.6893 139.3012  2.13102981  6316"}}, "geometry": {"type": "Point", "coordinates": [-97.47682037674204, -8.072863462946836]}}, {"type": "Feature", "properties": {"norad_id": 64202, "name": "GPS BIII-8  (PRN 21)", "group": "gnss", "lat": 21.7070872517961, "lon": -157.9671101561461, "alt_km": 20194.791980776794, "timestamp": "2025-12-25T07:00:34.290213+00:00", "meta": {"OBJECT_NAME": "GPS BIII-8  (PRN 21)", "OBJECT_ID": "2025-116A", "EPOCH": "2025-12-24T05:06:23.734944", "MEAN_MOTION": 2.0055752, "ECCENTRICITY": 0.00059658, "INCLINATION": 55.1137, "RA_OF_ASC_NODE": 38.1782, "ARG_OF_PERICENTER": 310.8419, "MEAN_ANOMALY": 143.1183, "EPHEMERIS_TYPE": 0, "CLASSIFICATION_TYPE": "U", "NORAD_CAT_ID": 64202, "ELEMENT_SET_NO": 999, "REV_AT_EPOCH": 436, "BSTAR": 0, "MEAN_MOTION_DOT": -5e-07, "MEAN_MOTION_DDOT": 0}, "tle": {"line1": "1 64202U 25116A   25358.21277471 -.00000050  00000+0  00000+0 0  9997", "line2": "2 64202  55.1137  38.1782 0005965 310.8419 143.1183  2.00557520  4368"}}, "geometry": {"type": "Point", "coordinates": [-157.9671101561461, 21.7070872517961]}}, {"type": "Feature", "properties": {"norad_id": 65590, "name": "COSMOS 2596 (708K)", "group": "gnss", "lat": -45.99488492060861, "lon": -68.22084325044062, "alt_km": 19099.513096313935, "timestamp": "2025-12-25T07:00:34.290224+00:00", "meta": {"OBJECT_NAME": "COSMOS 2596 (708K)", "OBJECT_ID": "2025-206B", "EPOCH": "2025-12-24T10:04:00.075648", "MEAN_MOTION": 2.13100293, "ECCENTRICITY": 0.00140917, "INCLINATION": 64.738, "RA_OF_ASC_NODE": 321.0695, "ARG_OF_PERICENTER": 307.5813, "MEAN_ANOMALY": 50.2886, "EPHEMERIS_TYPE": 0, "CLASSIFICATION_TYPE": "U", "NORAD_CAT_ID": 65590, "ELEMENT_SET_NO": 999, "REV_AT_EPOCH": 218, "BSTAR": 0, "MEAN_MOTION_DOT": -3.5e-07, "MEAN_MOTION_DDOT": 0}, "tle": {"line1": "1 65590U 25206B   25358.41944532 -.00000035  00000+0  00000+0 0  9992", "line2": "2 65590  64.7380 321.0695 0014091 307.5813  50.2886  2.13100293  2184"}}, "geometry": {"type": "Point", "coordinates": [-68.22084325044062, -45.99488492060861]}}]}